start=new Date('2023-03-05T00:00:00.000Z').valueOf();
sats=[{"PERIAPSIS":"546.078","TLE_LINE1":"1 45730U 20038A   23063.93880389  .00009533  00000-0  65801-3 0  9997","NORAD_CAT_ID":"45730","MEAN_MOTION_DOT":"0.00009533","MEAN_ANOMALY":"261.4360","DECAY_DATE":null,"PERIOD":"95.592","EPHEMERIS_TYPE":"0","TIME_SYSTEM":"UTC","OBJECT_TYPE":"PAYLOAD","REF_FRAME":"TEME","SEMIMAJOR_AXIS":"6925.346","CENTER_NAME":"EARTH","ELEMENT_SET_NO":"999","BSTAR":"0.00065801000000","OBJECT_ID":"2020-038A","MEAN_MOTION_DDOT":"0.0000000000000","OBJECT_NAME":"STARLINK-1461","SITE":"AFETR","ECCENTRICITY":"0.00016360","EPOCH":"2023-03-04T22:31:52.656096","GP_ID":"227505428","COUNTRY_CODE":"US","TLE_LINE2":"2 45730  53.0549 138.0765 0001636  98.6814 261.4360 15.06400890150291","REV_AT_EPOCH":"15029","CLASSIFICATION_TYPE":"U","INCLINATION":"53.0549","MEAN_ELEMENT_THEORY":"SGP4","RA_OF_ASC_NODE":"138.0765","FILE":"3851350","MEAN_MOTION":"15.06400890","RCS_SIZE":"LARGE","ARG_OF_PERICENTER":"98.6814","APOAPSIS":"548.344","LAUNCH_DATE":"2020-06-13"},{"MEAN_ELEMENT_THEORY":"SGP4","TLE_LINE2":"2 45731  53.0538 140.0977 0001597  95.7643 264.3528 15.06407830150213","REV_AT_EPOCH":"15021","CLASSIFICATION_TYPE":"U","INCLINATION":"53.0538","ECCENTRICITY":"0.00015970","SITE":"AFETR","EPOCH":"2023-03-04T11:44:19.783968","GP_ID":"227472411","COUNTRY_CODE":"US","OBJECT_NAME":"STARLINK-1465","APOAPSIS":"548.296","LAUNCH_DATE":"2020-06-13","FILE":"3851072","MEAN_MOTION":"15.06407830","RCS_SIZE":"LARGE","ARG_OF_PERICENTER":"95.7643","RA_OF_ASC_NODE":"140.0977","MEAN_ANOMALY":"264.3528","EPHEMERIS_TYPE":"0","DECAY_DATE":null,"PERIOD":"95.592","MEAN_MOTION_DOT":"-0.00000763","TLE_LINE1":"1 45731U 20038B   23063.48911787 -.00000763  00000-0 -32295-4 0  9995","PERIAPSIS":"546.084","NORAD_CAT_ID":"45731","OBJECT_ID":"2020-038B","MEAN_MOTION_DDOT":"0.0000000000000","ELEMENT_SET_NO":"999","BSTAR":"-0.00003229500000","REF_FRAME":"TEME","SEMIMAJOR_AXIS":"6925.325","CENTER_NAME":"EARTH","TIME_SYSTEM":"UTC","OBJECT_TYPE":"PAYLOAD"},{"MEAN_MOTION_DOT":"0.00028370","TLE_LINE1":"1 45732U 20038C   23063.47806159  .00028370  00000-0  19151-2 0  9997","PERIAPSIS":"546.185","NORAD_CAT_ID":"45732","MEAN_ANOMALY":"275.9496","DECAY_DATE":null,"PERIOD":"95.591","EPHEMERIS_TYPE":"0","REF_FRAME":"TEME","CENTER_NAME":"EARTH","SEMIMAJOR_AXIS":"6925.305","TIME_SYSTEM":"UTC","OBJECT_TYPE":"PAYLOAD","OBJECT_ID":"2020-038C","MEAN_MOTION_DDOT":"0.0000000000000","ELEMENT_SET_NO":"999","BSTAR":"0.00191510000000","EPOCH":"2023-03-04T11:28:24.521376","SITE":"AFETR","ECCENTRICITY":"0.00014220","COUNTRY_CODE":"US","GP_ID":"227472650","OBJECT_NAME":"STARLINK-1466","MEAN_ELEMENT_THEORY":"SGP4","CLASSIFICATION_TYPE":"U","REV_AT_EPOCH":"15021","TLE_LINE2":"2 45732  53.0527 140.1503 0001422  84.1655 275.9496 15.06414129150211","INCLINATION":"53.0527","MEAN_MOTION":"15.06414129","FILE":"3851072","ARG_OF_PERICENTER":"84.1655","RCS_SIZE":"LARGE","RA_OF_ASC_NODE":"140.1503","APOAPSIS":"548.155","LAUNCH_DATE":"2020-06-13"},{"REF_FRAME":"TEME","SEMIMAJOR_AXIS":"6896.293","CENTER_NAME":"EARTH","TIME_SYSTEM":"UTC","OBJECT_TYPE":"PAYLOAD","OBJECT_ID":"2020-038D","MEAN_MOTION_DDOT":"0.0000000000000","ELEMENT_SET_NO":"999","BSTAR":"0.00292740000000","MEAN_MOTION_DOT":"0.00056931","PERIAPSIS":"516.245","TLE_LINE1":"1 45733U 20038D   23063.88274475  .00056931  00000-0  29274-2 0  9994","NORAD_CAT_ID":"45733","MEAN_ANOMALY":"338.0611","DECAY_DATE":null,"EPHEMERIS_TYPE":"0","PERIOD":"94.991","FILE":"3851350","MEAN_MOTION":"15.15930228","RCS_SIZE":"LARGE","ARG_OF_PERICENTER":"22.0501","RA_OF_ASC_NODE":"132.7402","APOAPSIS":"520.071","LAUNCH_DATE":"2020-06-13","ECCENTRICITY":"0.00027740","SITE":"AFETR","EPOCH":"2023-03-04T21:11:09.146400","GP_ID":"227504682","COUNTRY_CODE":"US","OBJECT_NAME":"STARLINK-1467","MEAN_ELEMENT_THEORY":"SGP4","REV_AT_EPOCH":"15035","TLE_LINE2":"2 45733  53.0547 132.7402 0002774  22.0501 338.0611 15.15930228150359","CLASSIFICATION_TYPE":"U","INCLINATION":"53.0547"},{"OBJECT_ID":"2020-038E","MEAN_MOTION_DDOT":"0.0000000000000","ELEMENT_SET_NO":"999","BSTAR":"0.00067205000000","REF_FRAME":"TEME","SEMIMAJOR_AXIS":"6906.587","CENTER_NAME":"EARTH","TIME_SYSTEM":"UTC","OBJECT_TYPE":"PAYLOAD","MEAN_ANOMALY":"306.9327","EPHEMERIS_TYPE":"0","DECAY_DATE":null,"PERIOD":"95.204","MEAN_MOTION_DOT":"0.00011570","TLE_LINE1":"1 45734U 20038E   23063.54345918  .00011570  00000-0  67205-3 0  9996","PERIAPSIS":"527.840","NORAD_CAT_ID":"45734","APOAPSIS":"529.064","LAUNCH_DATE":"2020-06-13","FILE":"3851072","MEAN_MOTION":"15.12542242","RCS_SIZE":"LARGE","ARG_OF_PERICENTER":"53.1746","RA_OF_ASC_NODE":"135.8097","MEAN_ELEMENT_THEORY":"SGP4","TLE_LINE2":"2 45734  53.0544 135.8097 0000886  53.1746 306.9327 15.12542242150281","REV_AT_EPOCH":"15028","CLASSIFICATION_TYPE":"U","INCLINATION":"53.0544","ECCENTRICITY":"0.00008860","SITE":"AFETR","EPOCH":"2023-03-04T13:02:34.873152","GP_ID":"227472160","COUNTRY_CODE":"US","OBJECT_NAME":"STARLINK-1468"},{"RA_OF_ASC_NODE":"138.2470","ARG_OF_PERICENTER":"82.1641","RCS_SIZE":"LARGE","FILE":"3851350","MEAN_MOTION":"15.06396005","LAUNCH_DATE":"2020-06-13","APOAPSIS":"548.428","OBJECT_NAME":"STARLINK-1471","COUNTRY_CODE":"US","GP_ID":"227505681","EPOCH":"2023-03-04T21:38:48.212160","ECCENTRICITY":"0.00017360","SITE":"AFETR","INCLINATION":"53.0544","CLASSIFICATION_TYPE":"U","REV_AT_EPOCH":"15027","TLE_LINE2":"2 45735  53.0544 138.2470 0001736  82.1641 277.9545 15.06396005150270","MEAN_ELEMENT_THEORY":"SGP4","OBJECT_TYPE":"PAYLOAD","TIME_SYSTEM":"UTC","CENTER_NAME":"EARTH","SEMIMAJOR_AXIS":"6925.361","REF_FRAME":"TEME","BSTAR":"0.00025879000000","ELEMENT_SET_NO":"999","MEAN_MOTION_DDOT":"0.0000000000000","OBJECT_ID":"2020-038F","NORAD_CAT_ID":"45735","PERIAPSIS":"546.024","TLE_LINE1":"1 45735U 20038F   23063.90194690  .00003575  00000-0  25879-3 0  9993","MEAN_MOTION_DOT":"0.00003575","DECAY_DATE":null,"PERIOD":"95.592","EPHEMERIS_TYPE":"0","MEAN_ANOMALY":"277.9545"},{"RA_OF_ASC_NODE":"45.8331","FILE":"3851350","MEAN_MOTION":"15.48344962","RCS_SIZE":"LARGE","ARG_OF_PERICENTER":"73.3792","APOAPSIS":"425.168","LAUNCH_DATE":"2020-06-13","OBJECT_NAME":"STARLINK-1472","SITE":"AFETR","ECCENTRICITY":"0.00052920","EPOCH":"2023-03-04T16:08:39.105312","GP_ID":"227506418","COUNTRY_CODE":"US","REV_AT_EPOCH":"15157","TLE_LINE2":"2 45736  53.0591  45.8331 0005292  73.3792 286.7796 15.48344962151573","CLASSIFICATION_TYPE":"U","INCLINATION":"53.0591","MEAN_ELEMENT_THEORY":"SGP4","TIME_SYSTEM":"UTC","OBJECT_TYPE":"PAYLOAD","REF_FRAME":"TEME","SEMIMAJOR_AXIS":"6799.704","CENTER_NAME":"EARTH","ELEMENT_SET_NO":"999","BSTAR":"0.00099618000000","OBJECT_ID":"2020-038G","MEAN_MOTION_DDOT":"0.0000000000000","TLE_LINE1":"1 45736U 20038G   23063.67267483  .00053513  00000-0  99618-3 0  9998","PERIAPSIS":"417.971","NORAD_CAT_ID":"45736","MEAN_MOTION_DOT":"0.00053513","MEAN_ANOMALY":"286.7796","EPHEMERIS_TYPE":"0","DECAY_DATE":null,"PERIOD":"93.003"},{"TLE_LINE1":"1 45738U 20038J   23063.69184654  .00038998  00000-0  26196-2 0  9990","PERIAPSIS":"545.843","NORAD_CAT_ID":"45738","MEAN_MOTION_DOT":"0.00038998","MEAN_ANOMALY":"258.7776","EPHEMERIS_TYPE":"0","DECAY_DATE":null,"PERIOD":"95.590","TIME_SYSTEM":"UTC","OBJECT_TYPE":"PAYLOAD","REF_FRAME":"TEME","SEMIMAJOR_AXIS":"6925.221","CENTER_NAME":"EARTH","ELEMENT_SET_NO":"999","BSTAR":"0.00261960000000","OBJECT_ID":"2020-038J","MEAN_MOTION_DDOT":"0.0000000000000","OBJECT_NAME":"STARLINK-1474","SITE":"AFETR","ECCENTRICITY":"0.00017960","EPOCH":"2023-03-04T16:36:15.541056","GP_ID":"227505180","COUNTRY_CODE":"US","REV_AT_EPOCH":"15024","TLE_LINE2":"2 45738  53.0542 139.1874 0001796 101.3415 258.7776 15.06441514150244","CLASSIFICATION_TYPE":"U","INCLINATION":"53.0542","MEAN_ELEMENT_THEORY":"SGP4","RA_OF_ASC_NODE":"139.1874","FILE":"3851350","MEAN_MOTION":"15.06441514","RCS_SIZE":"LARGE","ARG_OF_PERICENTER":"101.3415","APOAPSIS":"548.330","LAUNCH_DATE":"2020-06-13"},{"ARG_OF_PERICENTER":"87.3283","RCS_SIZE":"LARGE","FILE":"3851350","MEAN_MOTION":"15.06425787","RA_OF_ASC_NODE":"99.7134","LAUNCH_DATE":"2020-06-13","APOAPSIS":"548.084","COUNTRY_CODE":"US","GP_ID":"227505429","EPOCH":"2023-03-04T13:45:02.696832","ECCENTRICITY":"0.00013710","SITE":"AFETR","OBJECT_NAME":"STARLINK-1475","MEAN_ELEMENT_THEORY":"SGP4","INCLINATION":"53.0523","CLASSIFICATION_TYPE":"U","REV_AT_EPOCH":"15078","TLE_LINE2":"2 45739  53.0523  99.7134 0001371  87.3283 272.7863 15.06425787150785","CENTER_NAME":"EARTH","SEMIMAJOR_AXIS":"6925.270","REF_FRAME":"TEME","OBJECT_TYPE":"PAYLOAD","TIME_SYSTEM":"UTC","MEAN_MOTION_DDOT":"0.0000000000000","OBJECT_ID":"2020-038K","BSTAR":"0.00234580000000","ELEMENT_SET_NO":"999","MEAN_MOTION_DOT":"0.00034857","NORAD_CAT_ID":"45739","TLE_LINE1":"1 45739U 20038K   23063.57294788  .00034857  00000-0  23458-2 0  9996","PERIAPSIS":"546.185","DECAY_DATE":null,"EPHEMERIS_TYPE":"0","PERIOD":"95.591","MEAN_ANOMALY":"272.7863"},{"MEAN_ANOMALY":"280.5495","DECAY_DATE":null,"EPHEMERIS_TYPE":"0","PERIOD":"95.593","PERIAPSIS":"546.030","TLE_LINE1":"1 45740U 20038L   23063.89826293  .00009764  00000-0  67357-3 0  9991","NORAD_CAT_ID":"45740","MEAN_MOTION_DOT":"0.00009764","ELEMENT_SET_NO":"999","BSTAR":"0.00067357000000","OBJECT_ID":"2020-038L","MEAN_MOTION_DDOT":"0.0000000000000","TIME_SYSTEM":"UTC","OBJECT_TYPE":"PAYLOAD","REF_FRAME":"TEME","CENTER_NAME":"EARTH","SEMIMAJOR_AXIS":"6925.368","CLASSIFICATION_TYPE":"U","TLE_LINE2":"2 45740  53.0542 138.2626 0001737  79.5689 280.5495 15.06393694150275","REV_AT_EPOCH":"15027","INCLINATION":"53.0542","MEAN_ELEMENT_THEORY":"SGP4","OBJECT_NAME":"STARLINK-1479","EPOCH":"2023-03-04T21:33:29.917152","SITE":"AFETR","ECCENTRICITY":"0.00017370","COUNTRY_CODE":"US","GP_ID":"227506181","APOAPSIS":"548.436","LAUNCH_DATE":"2020-06-13","RA_OF_ASC_NODE":"138.2626","FILE":"3851350","MEAN_MOTION":"15.06393694","ARG_OF_PERICENTER":"79.5689","RCS_SIZE":"LARGE"}];
